ONEWEB-0032             
1 45141U 20008L   23284.79323612 -.00000271  00000+0 -81130-3 0  9994
2 45141  87.8885 230.7934 0002063  74.7692 285.3664 13.10371287180898
ONEWEB-0033             
1 45142U 20008M   23284.76726804  .00000684  00000+0  19218-2 0  9995
2 45142  87.8887 230.8062 0001816  69.3639 290.7683 13.10374932180846
ONEWEB-0035             
1 45143U 20008N   23284.79973184 -.00000550  00000+0 -16118-2 0  9994
2 45143  87.8883 230.7730 0001862  73.1504 286.9827 13.10372926180566
ONEWEB-0036             
1 45144U 20008P   23285.09542762 -.00000146  00000+0 -45341-3 0  9995
2 45144  87.8886 230.6754 0002002  81.2200 278.9154 13.10366989181001
ONEWEB-0038             
1 45145U 20008Q   23285.19220281  .00000531  00000+0  14628-2 0  9995
2 45145  87.8991 215.5365 0002762  70.8464 289.2962 13.11416831182802
ONEWEB-0039             
1 45146U 20008R   23285.38137782  .00000719  00000+0  20240-2 0  9995
2 45146  87.8883 230.6382 0002338  87.9179 272.2216 13.10375173180759
ONEWEB-0040             
1 45147U 20008S   23284.76401860  .00000660  00000+0  18533-2 0  9995
2 45147  87.8889 230.7461 0002048  77.9801 282.1556 13.10373694180386
ONEWEB-0041             
1 45148U 20008T   23284.76660924  .00000128  00000+0  18415-3 0  9993
2 45148  87.9455 207.2917 0018109 153.4312 206.7769 13.48418084186865
